start=new Date('2023-04-26T00:00:00.000Z').valueOf();
sats=[{"TIME_SYSTEM":"UTC","MEAN_MOTION_DOT":"0.00012069","EPOCH":"2023-04-24T15:43:33.190464","APOAPSIS":"560.192","MEAN_ANOMALY":"88.9649","SEMIMAJOR_AXIS":"6937.097","PERIOD":"95.836","RA_OF_ASC_NODE":"284.3858","FILE":"3894092","MEAN_MOTION":"15.02574678","ELEMENT_SET_NO":"999","OBJECT_NAME":"STARLINK-5706","TLE_LINE1":"1 55488U 23015AR  23114.65524526  .00012069  00000-0  90605-3 0  9998","LAUNCH_DATE":"2023-02-02","ARG_OF_PERICENTER":"271.0990","PERIAPSIS":"557.733","MEAN_MOTION_DDOT":"0.0000000000000","GP_ID":"230744695","OBJECT_ID":"2023-015AR","RCS_SIZE":"LARGE","OBJECT_TYPE":"PAYLOAD","INCLINATION":"43.0015","NORAD_CAT_ID":"55488","REV_AT_EPOCH":"1265","BSTAR":"0.00090605000000","ECCENTRICITY":"0.00017730","SITE":"AFETR","CENTER_NAME":"EARTH","TLE_LINE2":"2 55488  43.0015 284.3858 0001773 271.0990  88.9649 15.02574678 12652","CLASSIFICATION_TYPE":"U","EPHEMERIS_TYPE":"0","MEAN_ELEMENT_THEORY":"SGP4","COUNTRY_CODE":"US","DECAY_DATE":null,"REF_FRAME":"TEME"},{"FILE":"3894092","MEAN_MOTION":"15.02515591","OBJECT_NAME":"STARLINK-5371","ELEMENT_SET_NO":"999","TLE_LINE1":"1 55489U 23015AS  23115.46632578 -.00003013  00000-0 -20816-3 0  9994","TIME_SYSTEM":"UTC","MEAN_MOTION_DOT":"-0.00003013","EPOCH":"2023-04-25T11:11:30.547392","APOAPSIS":"560.413","SEMIMAJOR_AXIS":"6937.279","MEAN_ANOMALY":"98.1660","PERIOD":"95.839","RA_OF_ASC_NODE":"280.1561","NORAD_CAT_ID":"55489","REV_AT_EPOCH":"1277","BSTAR":"-0.00020816000000","ECCENTRICITY":"0.00018290","SITE":"AFETR","CENTER_NAME":"EARTH","TLE_LINE2":"2 55489  43.0011 280.1561 0001829 261.8975  98.1660 15.02515591 12774","CLASSIFICATION_TYPE":"U","MEAN_ELEMENT_THEORY":"SGP4","EPHEMERIS_TYPE":"0","COUNTRY_CODE":"US","DECAY_DATE":null,"REF_FRAME":"TEME","LAUNCH_DATE":"2023-02-02","ARG_OF_PERICENTER":"261.8975","PERIAPSIS":"557.876","MEAN_MOTION_DDOT":"0.0000000000000","GP_ID":"230745947","RCS_SIZE":"LARGE","OBJECT_ID":"2023-015AS","OBJECT_TYPE":"PAYLOAD","INCLINATION":"43.0011"},{"PERIAPSIS":"558.116","ARG_OF_PERICENTER":"279.3753","LAUNCH_DATE":"2023-02-02","INCLINATION":"43.0000","OBJECT_TYPE":"PAYLOAD","OBJECT_ID":"2023-015AT","RCS_SIZE":"LARGE","GP_ID":"230745697","MEAN_MOTION_DDOT":"0.0000000000000","BSTAR":"-0.00087550000000","ECCENTRICITY":"0.00014060","REV_AT_EPOCH":"1273","NORAD_CAT_ID":"55490","DECAY_DATE":null,"REF_FRAME":"TEME","COUNTRY_CODE":"US","EPHEMERIS_TYPE":"0","CLASSIFICATION_TYPE":"U","MEAN_ELEMENT_THEORY":"SGP4","CENTER_NAME":"EARTH","TLE_LINE2":"2 55490  43.0000 281.4569 0001406 279.3753  80.6930 15.02532908 12738","SITE":"AFETR","EPOCH":"2023-04-25T04:21:23.877504","MEAN_MOTION_DOT":"-0.00012009","TIME_SYSTEM":"UTC","RA_OF_ASC_NODE":"281.4569","PERIOD":"95.838","SEMIMAJOR_AXIS":"6937.226","MEAN_ANOMALY":"80.6930","APOAPSIS":"560.066","FILE":"3894092","TLE_LINE1":"1 55490U 23015AT  23115.18152636 -.00012009  00000-0 -87550-3 0  9990","ELEMENT_SET_NO":"999","OBJECT_NAME":"STARLINK-5373","MEAN_MOTION":"15.02532908"},{"PERIAPSIS":"456.407","LAUNCH_DATE":"2023-02-02","ARG_OF_PERICENTER":"265.5213","INCLINATION":"43.0005","RCS_SIZE":"LARGE","OBJECT_ID":"2023-015AU","OBJECT_TYPE":"PAYLOAD","GP_ID":"230744445","MEAN_MOTION_DDOT":"0.0000000000000","BSTAR":"-0.02795600000000","ECCENTRICITY":"0.00013720","REV_AT_EPOCH":"130","NORAD_CAT_ID":"55491","COUNTRY_CODE":"US","REF_FRAME":"TEME","DECAY_DATE":null,"TLE_LINE2":"2 55491  43.0005 255.9749 0001372 265.5213  45.7951 15.36205146  1304","CENTER_NAME":"EARTH","CLASSIFICATION_TYPE":"U","EPHEMERIS_TYPE":"0","MEAN_ELEMENT_THEORY":"SGP4","SITE":"AFETR","EPOCH":"2023-04-25T14:00:01.999872","TIME_SYSTEM":"UTC","MEAN_MOTION_DOT":"-0.00923842","RA_OF_ASC_NODE":"255.9749","SEMIMAJOR_AXIS":"6835.480","MEAN_ANOMALY":"45.7951","PERIOD":"93.737","APOAPSIS":"458.283","FILE":"3894092","ELEMENT_SET_NO":"999","OBJECT_NAME":"STARLINK-5364","TLE_LINE1":"1 55491U 23015AU  23115.58335648 -.00923842  00000-0 -27956-1 0  9999","MEAN_MOTION":"15.36205146"},{"PERIAPSIS":"557.790","LAUNCH_DATE":"2023-02-02","ARG_OF_PERICENTER":"253.6801","INCLINATION":"43.0020","RCS_SIZE":"LARGE","OBJECT_ID":"2023-015AV","OBJECT_TYPE":"PAYLOAD","GP_ID":"230745196","MEAN_MOTION_DDOT":"0.0000000000000","ECCENTRICITY":"0.00017370","BSTAR":"0.00020570000000","REV_AT_EPOCH":"1278","NORAD_CAT_ID":"55492","COUNTRY_CODE":"US","DECAY_DATE":null,"REF_FRAME":"TEME","TLE_LINE2":"2 55492  43.0020 279.7048 0001737 253.6801 106.3851 15.02564032 12786","CENTER_NAME":"EARTH","EPHEMERIS_TYPE":"0","MEAN_ELEMENT_THEORY":"SGP4","CLASSIFICATION_TYPE":"U","SITE":"AFETR","EPOCH":"2023-04-25T12:31:10.679232","TIME_SYSTEM":"UTC","MEAN_MOTION_DOT":"0.00002578","RA_OF_ASC_NODE":"279.7048","MEAN_ANOMALY":"106.3851","SEMIMAJOR_AXIS":"6937.130","PERIOD":"95.836","APOAPSIS":"560.200","FILE":"3894092","ELEMENT_SET_NO":"999","OBJECT_NAME":"STARLINK-5013","TLE_LINE1":"1 55492U 23015AV  23115.52165138  .00002578  00000-0  20570-3 0  9998","MEAN_MOTION":"15.02564032"},{"GP_ID":"230745447","MEAN_MOTION_DDOT":"0.0000000000000","INCLINATION":"43.0003","OBJECT_ID":"2023-015AW","RCS_SIZE":"LARGE","OBJECT_TYPE":"PAYLOAD","PERIAPSIS":"558.094","LAUNCH_DATE":"2023-02-02","ARG_OF_PERICENTER":"255.9866","CENTER_NAME":"EARTH","TLE_LINE2":"2 55493  43.0003 279.6669 0001664 255.9866 104.0792 15.02481671 12787","CLASSIFICATION_TYPE":"U","EPHEMERIS_TYPE":"0","MEAN_ELEMENT_THEORY":"SGP4","SITE":"AFETR","COUNTRY_CODE":"US","REF_FRAME":"TEME","DECAY_DATE":null,"REV_AT_EPOCH":"1278","NORAD_CAT_ID":"55493","BSTAR":"-0.00094675000000","ECCENTRICITY":"0.00016640","SEMIMAJOR_AXIS":"6937.384","MEAN_ANOMALY":"104.0792","PERIOD":"95.841","APOAPSIS":"560.403","RA_OF_ASC_NODE":"279.6669","TIME_SYSTEM":"UTC","MEAN_MOTION_DOT":"-0.00012951","EPOCH":"2023-04-25T12:23:15.398016","MEAN_MOTION":"15.02481671","ELEMENT_SET_NO":"999","OBJECT_NAME":"STARLINK-5362","TLE_LINE1":"1 55493U 23015AW  23115.51615044 -.00012951  00000-0 -94675-3 0  9999","FILE":"3894092"},{"FILE":"3894092","TLE_LINE1":"1 55494U 23015AX  23115.44411650 -.00005978  00000-0 -42823-3 0  9998","ELEMENT_SET_NO":"999","OBJECT_NAME":"STARLINK-5344","MEAN_MOTION":"15.02504167","EPOCH":"2023-04-25T10:39:31.665600","MEAN_MOTION_DOT":"-0.00005978","TIME_SYSTEM":"UTC","RA_OF_ASC_NODE":"279.9850","APOAPSIS":"559.857","PERIOD":"95.840","MEAN_ANOMALY":"107.6052","SEMIMAJOR_AXIS":"6937.315","BSTAR":"-0.00042823000000","ECCENTRICITY":"0.00009760","NORAD_CAT_ID":"55494","REV_AT_EPOCH":"1277","DECAY_DATE":null,"REF_FRAME":"TEME","COUNTRY_CODE":"US","SITE":"AFETR","EPHEMERIS_TYPE":"0","MEAN_ELEMENT_THEORY":"SGP4","CLASSIFICATION_TYPE":"U","CENTER_NAME":"EARTH","TLE_LINE2":"2 55494  42.9989 279.9850 0000976 252.4683 107.6052 15.02504167 12771","ARG_OF_PERICENTER":"252.4683","LAUNCH_DATE":"2023-02-02","PERIAPSIS":"558.502","OBJECT_TYPE":"PAYLOAD","RCS_SIZE":"LARGE","OBJECT_ID":"2023-015AX","INCLINATION":"42.9989","MEAN_MOTION_DDOT":"0.0000000000000","GP_ID":"230746198"},{"MEAN_ELEMENT_THEORY":"SGP4","CLASSIFICATION_TYPE":"U","EPHEMERIS_TYPE":"0","TLE_LINE2":"2 55495  42.9987 254.2395 0001507 275.0637  15.5961 15.33168898 12925","CENTER_NAME":"EARTH","SITE":"AFETR","DECAY_DATE":null,"REF_FRAME":"TEME","COUNTRY_CODE":"US","REV_AT_EPOCH":"1292","NORAD_CAT_ID":"55495","ECCENTRICITY":"0.00015070","BSTAR":"-0.03081100000000","GP_ID":"230747330","MEAN_MOTION_DDOT":"0.0000000000000","INCLINATION":"42.9987","OBJECT_TYPE":"PAYLOAD","OBJECT_ID":"2023-015AY","RCS_SIZE":"LARGE","PERIAPSIS":"465.335","ARG_OF_PERICENTER":"275.0637","LAUNCH_DATE":"2023-02-02","MEAN_MOTION":"15.33168898","TLE_LINE1":"1 55495U 23015AY  23115.91667824 -.00923620  00000-0 -30811-1 0  9992","ELEMENT_SET_NO":"999","OBJECT_NAME":"STARLINK-5100","FILE":"3894141","PERIOD":"93.923","MEAN_ANOMALY":"15.5961","SEMIMAJOR_AXIS":"6844.502","APOAPSIS":"467.398","RA_OF_ASC_NODE":"254.2395","MEAN_MOTION_DOT":"-0.00923620","TIME_SYSTEM":"UTC","EPOCH":"2023-04-25T22:00:00.999936"},{"ARG_OF_PERICENTER":"333.4055","LAUNCH_DATE":"2023-02-02","PERIAPSIS":"337.123","MEAN_MOTION_DDOT":"0.0000000000000","GP_ID":"230744696","OBJECT_TYPE":"PAYLOAD","OBJECT_ID":"2023-015AZ","RCS_SIZE":"LARGE","INCLINATION":"42.9960","NORAD_CAT_ID":"55496","REV_AT_EPOCH":"130","BSTAR":"0.00056731000000","ECCENTRICITY":"0.00085100","SITE":"AFETR","MEAN_ELEMENT_THEORY":"SGP4","EPHEMERIS_TYPE":"0","CLASSIFICATION_TYPE":"U","TLE_LINE2":"2 55496  42.9960 253.5058 0008510 333.4055 267.4251 15.75629381  1304","CENTER_NAME":"EARTH","REF_FRAME":"TEME","DECAY_DATE":null,"COUNTRY_CODE":"US","MEAN_MOTION_DOT":"0.00090085","TIME_SYSTEM":"UTC","EPOCH":"2023-04-25T14:00:01.999872","APOAPSIS":"348.562","PERIOD":"91.392","MEAN_ANOMALY":"267.4251","SEMIMAJOR_AXIS":"6720.978","RA_OF_ASC_NODE":"253.5058","FILE":"3894092","MEAN_MOTION":"15.75629381","TLE_LINE1":"1 55496U 23015AZ  23115.58335648  .00090085  00000-0  56731-3 0  9991","ELEMENT_SET_NO":"999","OBJECT_NAME":"STARLINK-5139"},{"NORAD_CAT_ID":"55497","REV_AT_EPOCH":"1278","BSTAR":"-0.00064911000000","ECCENTRICITY":"0.00018610","SITE":"AFETR","MEAN_ELEMENT_THEORY":"SGP4","EPHEMERIS_TYPE":"0","CLASSIFICATION_TYPE":"U","CENTER_NAME":"EARTH","TLE_LINE2":"2 55497  43.0029 279.6091 0001861 256.5253 103.5382 15.02487938 12785","DECAY_DATE":null,"REF_FRAME":"TEME","COUNTRY_CODE":"US","ARG_OF_PERICENTER":"256.5253","LAUNCH_DATE":"2023-02-02","PERIAPSIS":"557.938","MEAN_MOTION_DDOT":"0.0000000000000","GP_ID":"230745948","OBJECT_TYPE":"PAYLOAD","OBJECT_ID":"2023-015BA","RCS_SIZE":"LARGE","INCLINATION":"43.0029","FILE":"3894092","MEAN_MOTION":"15.02487938","TLE_LINE1":"1 55497U 23015BA  23115.50839844 -.00008950  00000-0 -64911-3 0  9992","OBJECT_NAME":"STARLINK-5363","ELEMENT_SET_NO":"999","MEAN_MOTION_DOT":"-0.00008950","TIME_SYSTEM":"UTC","EPOCH":"2023-04-25T12:12:05.625216","APOAPSIS":"560.521","PERIOD":"95.841","SEMIMAJOR_AXIS":"6937.364","MEAN_ANOMALY":"103.5382","RA_OF_ASC_NODE":"279.6091"}];
